IRIDIUM 33 DEB          
1 33960U 97051BV  26074.23732732  .00029140  00000+0  29608-2 0  9993
2 33960  86.2493 245.6984 0002481 104.0135  76.7434 14.90676734902427
IRIDIUM 33 DEB          
1 33966U 97051CB  26074.25174179  .00002230  00000+0  57005-3 0  9990
2 33966  86.3971   6.3122 0005040 252.9998 236.8265 14.50074741897829
IRIDIUM 33 DEB          
1 34071U 97051CE  26074.21899130  .00002277  00000+0  58266-3 0  9996
2 34071  86.3494 337.6348 0008111 144.3642 215.8106 14.50031129896743
IRIDIUM 33 DEB          
1 34077U 97051CL  26074.28779146  .00010982  00000+0  19640-2 0  9997
2 34077  86.3888  10.6753 0012387  71.7878  55.4245 14.66751519896884
IRIDIUM 33 DEB          
1 34079U 97051CN  26074.21182053  .00016859  00000+0  18646-2 0  9991
2 34079  86.3783 326.4954 0008539  31.9024  89.5333 14.87264884903507
IRIDIUM 33 DEB          
1 34088U 97051CX  26074.29338059  .00038798  00000+0  32243-2 0  9993
2 34088  86.3863 347.9804 0002427 124.3363   3.8259 14.98555006901247
IRIDIUM 33 DEB          
1 34091U 97051DA  26074.10180225  .00049421  00000+0  50027-2 0  9992
2 34091  86.3451  24.2608 0029168 340.5683  19.4429 14.90413103892388
IRIDIUM 33 DEB          
1 34097U 97051DG  26074.17882938  .00003710  00000+0  12307-2 0  9995
2 34097  86.2007 320.5951 0083864  59.2468 301.6952 14.35591492884454
IRIDIUM 33 DEB          
1 34145U 97051DY  26073.78310283  .00003156  00000+0  91867-3 0  9997
2 34145  86.2081 291.5109 0053084 148.6149 211.8238 14.43123596889653
IRIDIUM 33 DEB          
1 34146U 97051DZ  26074.07545099  .00002423  00000+0  62144-3 0  9998
2 34146  86.2824 309.0057 0025017 280.2230 211.5137 14.49763106894446
IRIDIUM 33 DEB          
1 34159U 97051EN  26074.24145399  .00001407  00000+0  45001-3 0  9994
2 34159  86.3557   8.7929 0027859 348.5756  11.4807 14.38772405892890
IRIDIUM 33 DEB          
1 34350U 97051ES  26074.16313827  .00001178  00000+0  32660-3 0  9993
2 34350  86.3293 322.7186 0020313 186.8854 296.9267 14.45706470896288
IRIDIUM 33 DEB          
1 34366U 97051FJ  26074.28788053  .00004993  00000+0  11504-2 0  9991
2 34366  86.3732   9.0247 0019241 182.6767 307.2163 14.55074791895275
IRIDIUM 33 DEB          
1 34375U 97051FT  26074.19684118  .00000943  00000+0  42770-3 0  9999
2 34375  86.4338 145.4597 0102013 192.0503 223.1295 14.18192007880225
IRIDIUM 33 DEB          
1 34376U 97051FU  26074.18357200  .00008556  00000+0  15992-2 0  9991
2 34376  86.2985 324.9247 0023087 213.6060 146.3690 14.64640562893593
IRIDIUM 33 DEB          
1 34486U 97051GB  26074.18637483  .00034547  00000+0  25837-2 0  9995
2 34486  86.3922 329.1421 0010709 121.9162   5.1813 15.02568663903718
