[{"OBJECT_NAME":"IRIDIUM 33 DEB","OBJECT_ID":"1997-051BV","EPOCH":"2026-03-15T05:41:45.080448","MEAN_MOTION":14.90676734,"ECCENTRICITY":0.00024817,"INCLINATION":86.2493,"RA_OF_ASC_NODE":245.6984,"ARG_OF_PERICENTER":104.0135,"MEAN_ANOMALY":76.7434,"EPHEMERIS_TYPE":0,"CLASSIFICATION_TYPE":"U","NORAD_CAT_ID":33960,"ELEMENT_SET_NO":999,"REV_AT_EPOCH":90242,"BSTAR":0.0029608322,"MEAN_MOTION_DOT":0.0002914,"MEAN_MOTION_DDOT":0},{"OBJECT_NAME":"IRIDIUM 33 DEB","OBJECT_ID":"1997-051CB","EPOCH":"2026-03-15T06:02:30.490656","MEAN_MOTION":14.50074741,"ECCENTRICITY":0.000504,"INCLINATION":86.3971,"RA_OF_ASC_NODE":6.3122,"ARG_OF_PERICENTER":252.9998,"MEAN_ANOMALY":236.8265,"EPHEMERIS_TYPE":0,"CLASSIFICATION_TYPE":"U","NORAD_CAT_ID":33966,"ELEMENT_SET_NO":999,"REV_AT_EPOCH":89782,"BSTAR":0.00057004668,"MEAN_MOTION_DOT":2.23e-5,"MEAN_MOTION_DDOT":0},{"OBJECT_NAME":"IRIDIUM 33 DEB","OBJECT_ID":"1997-051CE","EPOCH":"2026-03-15T05:15:20.848320","MEAN_MOTION":14.50031129,"ECCENTRICITY":0.00081117,"INCLINATION":86.3494,"RA_OF_ASC_NODE":337.6348,"ARG_OF_PERICENTER":144.3642,"MEAN_ANOMALY":215.8106,"EPHEMERIS_TYPE":0,"CLASSIFICATION_TYPE":"U","NORAD_CAT_ID":34071,"ELEMENT_SET_NO":999,"REV_AT_EPOCH":89674,"BSTAR":0.00058265652,"MEAN_MOTION_DOT":2.277e-5,"MEAN_MOTION_DDOT":0},{"OBJECT_NAME":"IRIDIUM 33 DEB","OBJECT_ID":"1997-051CL","EPOCH":"2026-03-15T06:54:25.182144","MEAN_MOTION":14.66751519,"ECCENTRICITY":0.00123876,"INCLINATION":86.3888,"RA_OF_ASC_NODE":10.6753,"ARG_OF_PERICENTER":71.7878,"MEAN_ANOMALY":55.4245,"EPHEMERIS_TYPE":0,"CLASSIFICATION_TYPE":"U","NORAD_CAT_ID":34077,"ELEMENT_SET_NO":999,"REV_AT_EPOCH":89688,"BSTAR":0.0019639934,"MEAN_MOTION_DOT":0.00010982,"MEAN_MOTION_DDOT":0},{"OBJECT_NAME":"IRIDIUM 33 DEB","OBJECT_ID":"1997-051CN","EPOCH":"2026-03-15T05:05:01.293792","MEAN_MOTION":14.87264884,"ECCENTRICITY":0.00085396,"INCLINATION":86.3783,"RA_OF_ASC_NODE":326.4954,"ARG_OF_PERICENTER":31.9024,"MEAN_ANOMALY":89.5333,"EPHEMERIS_TYPE":0,"CLASSIFICATION_TYPE":"U","NORAD_CAT_ID":34079,"ELEMENT_SET_NO":999,"REV_AT_EPOCH":90350,"BSTAR":0.001864565,"MEAN_MOTION_DOT":0.00016859,"MEAN_MOTION_DDOT":0},{"OBJECT_NAME":"IRIDIUM 33 DEB","OBJECT_ID":"1997-051CX","EPOCH":"2026-03-15T07:02:28.082976","MEAN_MOTION":14.98555006,"ECCENTRICITY":0.00024276,"INCLINATION":86.3863,"RA_OF_ASC_NODE":347.9804,"ARG_OF_PERICENTER":124.3363,"MEAN_ANOMALY":3.8259,"EPHEMERIS_TYPE":0,"CLASSIFICATION_TYPE":"U","NORAD_CAT_ID":34088,"ELEMENT_SET_NO":999,"REV_AT_EPOCH":90124,"BSTAR":0.0032243389,"MEAN_MOTION_DOT":0.00038798,"MEAN_MOTION_DDOT":0},{"OBJECT_NAME":"IRIDIUM 33 DEB","OBJECT_ID":"1997-051DA","EPOCH":"2026-03-15T02:26:35.714400","MEAN_MOTION":14.90413103,"ECCENTRICITY":0.00291687,"INCLINATION":86.3451,"RA_OF_ASC_NODE":24.2608,"ARG_OF_PERICENTER":340.5683,"MEAN_ANOMALY":19.4429,"EPHEMERIS_TYPE":0,"CLASSIFICATION_TYPE":"U","NORAD_CAT_ID":34091,"ELEMENT_SET_NO":999,"REV_AT_EPOCH":89238,"BSTAR":0.0050026919,"MEAN_MOTION_DOT":0.00049421,"MEAN_MOTION_DDOT":0},{"OBJECT_NAME":"IRIDIUM 33 DEB","OBJECT_ID":"1997-051DG","EPOCH":"2026-03-15T04:17:30.858432","MEAN_MOTION":14.35591492,"ECCENTRICITY":0.00838643,"INCLINATION":86.2007,"RA_OF_ASC_NODE":320.5951,"ARG_OF_PERICENTER":59.2468,"MEAN_ANOMALY":301.6952,"EPHEMERIS_TYPE":0,"CLASSIFICATION_TYPE":"U","NORAD_CAT_ID":34097,"ELEMENT_SET_NO":999,"REV_AT_EPOCH":88445,"BSTAR":0.0012306686,"MEAN_MOTION_DOT":3.71e-5,"MEAN_MOTION_DDOT":0},{"OBJECT_NAME":"IRIDIUM 33 DEB","OBJECT_ID":"1997-051DY","EPOCH":"2026-03-14T18:47:40.084512","MEAN_MOTION":14.43123596,"ECCENTRICITY":0.00530849,"INCLINATION":86.2081,"RA_OF_ASC_NODE":291.5109,"ARG_OF_PERICENTER":148.6149,"MEAN_ANOMALY":211.8238,"EPHEMERIS_TYPE":0,"CLASSIFICATION_TYPE":"U","NORAD_CAT_ID":34145,"ELEMENT_SET_NO":999,"REV_AT_EPOCH":88965,"BSTAR":0.00091866812,"MEAN_MOTION_DOT":3.156e-5,"MEAN_MOTION_DDOT":0},{"OBJECT_NAME":"IRIDIUM 33 DEB","OBJECT_ID":"1997-051DZ","EPOCH":"2026-03-15T01:48:38.965536","MEAN_MOTION":14.49763106,"ECCENTRICITY":0.00250178,"INCLINATION":86.2824,"RA_OF_ASC_NODE":309.0057,"ARG_OF_PERICENTER":280.223,"MEAN_ANOMALY":211.5137,"EPHEMERIS_TYPE":0,"CLASSIFICATION_TYPE":"U","NORAD_CAT_ID":34146,"ELEMENT_SET_NO":999,"REV_AT_EPOCH":89444,"BSTAR":0.00062143875,"MEAN_MOTION_DOT":2.423e-5,"MEAN_MOTION_DDOT":0},{"OBJECT_NAME":"IRIDIUM 33 DEB","OBJECT_ID":"1997-051EN","EPOCH":"2026-03-15T05:47:41.624736","MEAN_MOTION":14.38772405,"ECCENTRICITY":0.0027859,"INCLINATION":86.3557,"RA_OF_ASC_NODE":8.7929,"ARG_OF_PERICENTER":348.5756,"MEAN_ANOMALY":11.4807,"EPHEMERIS_TYPE":0,"CLASSIFICATION_TYPE":"U","NORAD_CAT_ID":34159,"ELEMENT_SET_NO":999,"REV_AT_EPOCH":89289,"BSTAR":0.00045001436,"MEAN_MOTION_DOT":1.407e-5,"MEAN_MOTION_DDOT":0},{"OBJECT_NAME":"IRIDIUM 33 DEB","OBJECT_ID":"1997-051ES","EPOCH":"2026-03-15T03:54:55.146528","MEAN_MOTION":14.4570647,"ECCENTRICITY":0.00203136,"INCLINATION":86.3293,"RA_OF_ASC_NODE":322.7186,"ARG_OF_PERICENTER":186.8854,"MEAN_ANOMALY":296.9267,"EPHEMERIS_TYPE":0,"CLASSIFICATION_TYPE":"U","NORAD_CAT_ID":34350,"ELEMENT_SET_NO":999,"REV_AT_EPOCH":89628,"BSTAR":0.00032659553,"MEAN_MOTION_DOT":1.178e-5,"MEAN_MOTION_DDOT":0},{"OBJECT_NAME":"IRIDIUM 33 DEB","OBJECT_ID":"1997-051FJ","EPOCH":"2026-03-15T06:54:32.877792","MEAN_MOTION":14.55074791,"ECCENTRICITY":0.00192412,"INCLINATION":86.3732,"RA_OF_ASC_NODE":9.0247,"ARG_OF_PERICENTER":182.6767,"MEAN_ANOMALY":307.2163,"EPHEMERIS_TYPE":0,"CLASSIFICATION_TYPE":"U","NORAD_CAT_ID":34366,"ELEMENT_SET_NO":999,"REV_AT_EPOCH":89527,"BSTAR":0.0011503823,"MEAN_MOTION_DOT":4.993e-5,"MEAN_MOTION_DDOT":0},{"OBJECT_NAME":"IRIDIUM 33 DEB","OBJECT_ID":"1997-051FT","EPOCH":"2026-03-15T04:43:27.077952","MEAN_MOTION":14.18192007,"ECCENTRICITY":0.01020131,"INCLINATION":86.4338,"RA_OF_ASC_NODE":145.4597,"ARG_OF_PERICENTER":192.0503,"MEAN_ANOMALY":223.1295,"EPHEMERIS_TYPE":0,"CLASSIFICATION_TYPE":"U","NORAD_CAT_ID":34375,"ELEMENT_SET_NO":999,"REV_AT_EPOCH":88022,"BSTAR":0.00042770283,"MEAN_MOTION_DOT":9.43e-6,"MEAN_MOTION_DDOT":0},{"OBJECT_NAME":"IRIDIUM 33 DEB","OBJECT_ID":"1997-051FU","EPOCH":"2026-03-15T04:24:20.620800","MEAN_MOTION":14.64640562,"ECCENTRICITY":0.00230877,"INCLINATION":86.2985,"RA_OF_ASC_NODE":324.9247,"ARG_OF_PERICENTER":213.606,"MEAN_ANOMALY":146.369,"EPHEMERIS_TYPE":0,"CLASSIFICATION_TYPE":"U","NORAD_CAT_ID":34376,"ELEMENT_SET_NO":999,"REV_AT_EPOCH":89359,"BSTAR":0.001599161,"MEAN_MOTION_DOT":8.556e-5,"MEAN_MOTION_DDOT":0},{"OBJECT_NAME":"IRIDIUM 33 DEB","OBJECT_ID":"1997-051GB","EPOCH":"2026-03-15T04:28:22.785312","MEAN_MOTION":15.02568663,"ECCENTRICITY":0.00107092,"INCLINATION":86.3922,"RA_OF_ASC_NODE":329.1421,"ARG_OF_PERICENTER":121.9162,"MEAN_ANOMALY":5.1813,"EPHEMERIS_TYPE":0,"CLASSIFICATION_TYPE":"U","NORAD_CAT_ID":34486,"ELEMENT_SET_NO":999,"REV_AT_EPOCH":90371,"BSTAR":0.0025837298,"MEAN_MOTION_DOT":0.00034547,"MEAN_MOTION_DDOT":0}]
